{"type": "FeatureCollection", "features": [ {"type": "Feature", "properties": {"norad_id": 39546, "name": "COSMOS 2251 DEB", "group": "cosmos-2251-debris", "lat": 8.930645936999476, "lon": 120.40208400691658, "alt_km": 593.7412445457621, "timestamp": "2025-12-22T04:03:39.566655+00:00", "meta": {"OBJECT_NAME": "COSMOS 2251 DEB", "OBJECT_ID": "1993-036BUC", "EPOCH": "2025-12-20T15:00:47.215872", "MEAN_MOTION": 14.92249819, "ECCENTRICITY": 0.0044301, "INCLINATION": 73.9978, "RA_OF_ASC_NODE": 120.9229, "ARG_OF_PERICENTER": 279.9237, "MEAN_ANOMALY": 79.6947, "EPHEMERIS_TYPE": 0, "CLASSIFICATION_TYPE": "U", "NORAD_CAT_ID": 39546, "ELEMENT_SET_NO": 999, "REV_AT_EPOCH": 64554, "BSTAR": 0.00091336, "MEAN_MOTION_DOT": 9.469e-05, "MEAN_MOTION_DDOT": 0}, "tle": {"line1": "1 39546U 93036BUC 25354.62554648  .00009469  00000+0  91336-3 0  9999", "line2": "2 39546  73.9978 120.9229 0044301 279.9237  79.6947 14.92249819645543"}}, "geometry": {"type": "Point", "coordinates": [120.40208400691658, 8.930645936999476]}}, {"type": "Feature", "properties": {"norad_id": 39547, "name": "COSMOS 2251 DEB", "group": "cosmos-2251-debris", "lat": 25.446262520465655, "lon": 6.916864389146959, "alt_km": 550.3675311387715, "timestamp": "2025-12-22T04:03:39.566666+00:00", "meta": {"OBJECT_NAME": "COSMOS 2251 DEB", "OBJECT_ID": "1993-036BUD", "EPOCH": "2025-12-19T07:21:14.962752", "MEAN_MOTION": 15.03732917, "ECCENTRICITY": 0.0005758, "INCLINATION": 74.0009, "RA_OF_ASC_NODE": 4.9325, "ARG_OF_PERICENTER": 3.3316, "MEAN_ANOMALY": 11.6145, "EPHEMERIS_TYPE": 0, "CLASSIFICATION_TYPE": "U", "NORAD_CAT_ID": 39547, "ELEMENT_SET_NO": 999, "REV_AT_EPOCH": 64124, "BSTAR": 0.0019087, "MEAN_MOTION_DOT": 0.0002626, "MEAN_MOTION_DDOT": 0}, "tle": {"line1": "1 39547U 93036BUD 25353.30642318  .00026260  00000+0  19087-2 0  9996", "line2": "2 39547  74.0009   4.9325 0005758   3.3316  11.6145 15.03732917641247"}}, "geometry": {"type": "Point", "coordinates": [6.916864389146959, 25.446262520465655]}}, {"type": "Feature", "properties": {"norad_id": 39553, "name": "COSMOS 2251 DEB", "group": "cosmos-2251-debris", "lat": -72.83141226934056, "lon": -114.26386395967414, "alt_km": 1046.2917222037377, "timestamp": "2025-12-22T04:03:39.566677+00:00", "meta": {"OBJECT_NAME": "COSMOS 2251 DEB", "OBJECT_ID": "1993-036BUK", "EPOCH": "2025-12-19T04:26:08.787552", "MEAN_MOTION": 13.99893274, "ECCENTRICITY": 0.02023146, "INCLINATION": 74.0301, "RA_OF_ASC_NODE": 318.8543, "ARG_OF_PERICENTER": 93.0274, "MEAN_ANOMALY": 269.4029, "EPHEMERIS_TYPE": 0, "CLASSIFICATION_TYPE": "U", "NORAD_CAT_ID": 39553, "ELEMENT_SET_NO": 999, "REV_AT_EPOCH": 75707, "BSTAR": 0.00037697212, "MEAN_MOTION_DOT": 6.38e-06, "MEAN_MOTION_DDOT": 0}, "tle": {"line1": "1 39553U 93036BUK 25353.18482393  .00000638  00000+0  37697-3 0  9993", "line2": "2 39553  74.0301 318.8543 0202314  93.0274 269.4029 13.99893274757074"}}, "geometry": {"type": "Point", "coordinates": [-114.26386395967414, -72.83141226934056]}}, {"type": "Feature", "properties": {"norad_id": 39554, "name": "COSMOS 2251 DEB", "group": "cosmos-2251-debris", "lat": 55.22605174131518, "lon": 40.7213280326544, "alt_km": 523.9525623920645, "timestamp": "2025-12-22T04:03:39.566687+00:00", "meta": {"OBJECT_NAME": "COSMOS 2251 DEB", "OBJECT_ID": "1993-036BUL", "EPOCH": "2025-12-10T06:12:03.924864", "MEAN_MOTION": 15.10130993, "ECCENTRICITY": 0.0002993, "INCLINATION": 74.0187, "RA_OF_ASC_NODE": 269.7383, "ARG_OF_PERICENTER": 74.7531, "MEAN_ANOMALY": 81.5927, "EPHEMERIS_TYPE": 0, "CLASSIFICATION_TYPE": "U", "NORAD_CAT_ID": 39554, "ELEMENT_SET_NO": 999, "REV_AT_EPOCH": 64347, "BSTAR": 0.0046896, "MEAN_MOTION_DOT": 0.000773, "MEAN_MOTION_DDOT": 0}, "tle": {"line1": "1 39554U 93036BUL 25344.25837876  .00077300  00000+0  46896-2 0  9992", "line2": "2 39554  74.0187 269.7383 0002993  74.7531  81.5927 15.10130993643471"}}, "geometry": {"type": "Point", "coordinates": [40.7213280326544, 55.22605174131518]}}, {"type": "Feature", "properties": {"norad_id": 39583, "name": "COSMOS 2251 DEB", "group": "cosmos-2251-debris", "lat": -56.546237727838715, "lon": 74.96239237609547, "alt_km": 714.0721966381352, "timestamp": "2025-12-22T04:03:39.566697+00:00", "meta": {"OBJECT_NAME": "COSMOS 2251 DEB", "OBJECT_ID": "1993-036BUN", "EPOCH": "2025-12-20T09:51:33.318720", "MEAN_MOTION": 14.6056655, "ECCENTRICITY": 0.01369587, "INCLINATION": 73.9317, "RA_OF_ASC_NODE": 232.4786, "ARG_OF_PERICENTER": 344.3016, "MEAN_ANOMALY": 15.392, "EPHEMERIS_TYPE": 0, "CLASSIFICATION_TYPE": "U", "NORAD_CAT_ID": 39583, "ELEMENT_SET_NO": 999, "REV_AT_EPOCH": 61891, "BSTAR": 0.00096933589, "MEAN_MOTION_DOT": 5.347e-05, "MEAN_MOTION_DDOT": 0}, "tle": {"line1": "1 39583U 93036BUN 25354.41080230  .00005347  00000+0  96934-3 0  9998", "line2": "2 39583  73.9317 232.4786 0136958 344.3016  15.3920 14.60566550618918"}}, "geometry": {"type": "Point", "coordinates": [74.96239237609547, -56.546237727838715]}}, {"type": "Feature", "properties": {"norad_id": 39585, "name": "COSMOS 2251 DEB", "group": "cosmos-2251-debris", "lat": 3.5506114238257105, "lon": -75.61295982284437, "alt_km": 662.8543194684698, "timestamp": "2025-12-22T04:03:39.566707+00:00", "meta": {"OBJECT_NAME": "COSMOS 2251 DEB", "OBJECT_ID": "1993-036BUQ", "EPOCH": "2025-12-17T13:45:47.587680", "MEAN_MOTION": 14.58681164, "ECCENTRICITY": 0.00655713, "INCLINATION": 74.0421, "RA_OF_ASC_NODE": 292.1145, "ARG_OF_PERICENTER": 51.6529, "MEAN_ANOMALY": 309.0503, "EPHEMERIS_TYPE": 0, "CLASSIFICATION_TYPE": "U", "NORAD_CAT_ID": 39585, "ELEMENT_SET_NO": 999, "REV_AT_EPOCH": 62591, "BSTAR": 0.00024435975, "MEAN_MOTION_DOT": 1.143e-05, "MEAN_MOTION_DDOT": 0}, "tle": {"line1": "1 39585U 93036BUQ 25351.57346745  .00001143  00000+0  24436-3 0  9998", "line2": "2 39585  74.0421 292.1145 0065571  51.6529 309.0503 14.58681164625913"}}, "geometry": {"type": "Point", "coordinates": [-75.61295982284437, 3.5506114238257105]}}, {"type": "Feature", "properties": {"norad_id": 39586, "name": "COSMOS 2251 DEB", "group": "cosmos-2251-debris", "lat": -29.65854103831847, "lon": -158.076118103809, "alt_km": 756.3593797661233, "timestamp": "2025-12-22T04:03:39.566717+00:00", "meta": {"OBJECT_NAME": "COSMOS 2251 DEB", "OBJECT_ID": "1993-036BUR", "EPOCH": "2025-12-15T23:50:08.053728", "MEAN_MOTION": 14.21232237, "ECCENTRICITY": 0.01008868, "INCLINATION": 74.0082, "RA_OF_ASC_NODE": 222.4068, "ARG_OF_PERICENTER": 356.2296, "MEAN_ANOMALY": 66.1426, "EPHEMERIS_TYPE": 0, "CLASSIFICATION_TYPE": "U", "NORAD_CAT_ID": 39586, "ELEMENT_SET_NO": 999, "REV_AT_EPOCH": 61018, "BSTAR": 0.00043436803, "MEAN_MOTION_DOT": 9.7e-06, "MEAN_MOTION_DDOT": 0}, "tle": {"line1": "1 39586U 93036BUR 25349.99314877  .00000970  00000+0  43437-3 0  9992", "line2": "2 39586  74.0082 222.4068 0100886 356.2296  66.1426 14.21232237610182"}}, "geometry": {"type": "Point", "coordinates": [-158.076118103809, -29.65854103831847]}}, {"type": "Feature", "properties": {"norad_id": 39591, "name": "COSMOS 2251 DEB", "group": "cosmos-2251-debris", "lat": -15.448191068139577, "lon": 53.815235717384915, "alt_km": 773.9018835595562, "timestamp": "2025-12-22T04:03:39.566728+00:00", "meta": {"OBJECT_NAME": "COSMOS 2251 DEB", "OBJECT_ID": "1993-036BUW", "EPOCH": "2025-12-21T09:38:47.380128", "MEAN_MOTION": 14.4182802, "ECCENTRICITY": 0.002946, "INCLINATION": 74.0195, "RA_OF_ASC_NODE": 230.6959, "ARG_OF_PERICENTER": 341.9174, "MEAN_ANOMALY": 193.2786, "EPHEMERIS_TYPE": 0, "CLASSIFICATION_TYPE": "U", "NORAD_CAT_ID": 39591, "ELEMENT_SET_NO": 999, "REV_AT_EPOCH": 61901, "BSTAR": 0.00021024158, "MEAN_MOTION_DOT": 6.64e-06, "MEAN_MOTION_DDOT": 0}, "tle": {"line1": "1 39591U 93036BUW 25355.40193727  .00000664  00000+0  21024-3 0  9998", "line2": "2 39591  74.0195 230.6959 0029460 341.9174 193.2786 14.41828020619012"}}, "geometry": {"type": "Point", "coordinates": [53.815235717384915, -15.448191068139577]}}, {"type": "Feature", "properties": {"norad_id": 40218, "name": "COSMOS 2251 DEB", "group": "cosmos-2251-debris", "lat": 72.6605089827569, "lon": -62.12338930093669, "alt_km": 753.6624241887021, "timestamp": "2025-12-22T04:03:39.566738+00:00", "meta": {"OBJECT_NAME": "COSMOS 2251 DEB", "OBJECT_ID": "1993-036BUX", "EPOCH": "2025-12-14T10:48:31.251744", "MEAN_MOTION": 14.41597705, "ECCENTRICITY": 0.00168728, "INCLINATION": 74.0298, "RA_OF_ASC_NODE": 245.6562, "ARG_OF_PERICENTER": 328.6, "MEAN_ANOMALY": 31.4147, "EPHEMERIS_TYPE": 0, "CLASSIFICATION_TYPE": "U", "NORAD_CAT_ID": 40218, "ELEMENT_SET_NO": 999, "REV_AT_EPOCH": 58886, "BSTAR": 0.00046023204, "MEAN_MOTION_DOT": 1.474e-05, "MEAN_MOTION_DDOT": 0}, "tle": {"line1": "1 40218U 93036BUX 25348.45036171  .00001474  00000+0  46023-3 0  9998", "line2": "2 40218  74.0298 245.6562 0016872 328.6000  31.4147 14.41597705588868"}}, "geometry": {"type": "Point", "coordinates": [-62.12338930093669, 72.6605089827569]}}, {"type": "Feature", "properties": {"norad_id": 40223, "name": "COSMOS 2251 DEB", "group": "cosmos-2251-debris", "lat": 11.866732896083626, "lon": 72.76979649351398, "alt_km": 554.9829477274097, "timestamp": "2025-12-22T04:03:39.566748+00:00", "meta": {"OBJECT_NAME": "COSMOS 2251 DEB", "OBJECT_ID": "1993-036BVC", "EPOCH": "2025-12-21T12:06:26.690112", "MEAN_MOTION": 15.04482505, "ECCENTRICITY": 0.00157052, "INCLINATION": 73.9371, "RA_OF_ASC_NODE": 70.6668, "ARG_OF_PERICENTER": 278.3258, "MEAN_ANOMALY": 95.1407, "EPHEMERIS_TYPE": 0, "CLASSIFICATION_TYPE": "U", "NORAD_CAT_ID": 40223, "ELEMENT_SET_NO": 999, "REV_AT_EPOCH": 59506, "BSTAR": 0.0032560994, "MEAN_MOTION_DOT": 0.00045964, "MEAN_MOTION_DDOT": 0}, "tle": {"line1": "1 40223U 93036BVC 25355.50447558  .00045964  00000+0  32561-2 0  9996", "line2": "2 40223  73.9371  70.6668 0015705 278.3258  95.1407 15.04482505595064"}}, "geometry": {"type": "Point", "coordinates": [72.76979649351398, 11.866732896083626]}}]}